#aV2009  6  8  0  0   .00000000      96 DD+AD WGS84 FIT  NGA
## 1535  86400.00000000   900.00000000 54990  .0000000000000
+   31     1  2  3  4  6  7  8  9 10 11 12 13 14 15 16 17 18
+         19 20 21 22 23 24 25 26 27 28 29 30 31 32  0  0  0
+          0  0  0  0  0  0  0  0  0  0  0  0  0  0  0  0  0
+          0  0  0  0  0  0  0  0  0  0  0  0  0  0  0  0  0
+          0  0  0  0  0  0  0  0  0  0  0  0  0  0  0  0  0
++         0  0  0  0  0  0  0  0  0  0  0  0  0  0  0  0  0
++         0  0  0  0  0  0  0  0  0  0  0  0  0  0  0  0  0
++         0  0  0  0  0  0  0  0  0  0  0  0  0  0  0  0  0
++         0  0  0  0  0  0  0  0  0  0  0  0  0  0  0  0  0
++         0  0  0  0  0  0  0  0  0  0  0  0  0  0  0  0  0
%c cc cc ccc ccc cccc cccc cccc cccc ccccc ccccc ccccc ccccc
%c cc cc ccc ccc cccc cccc cccc cccc ccccc ccccc ccccc ccccc
%f  0.0000000  0.000000000  0.00000000000  0.000000000000000
%f  0.0000000  0.000000000  0.00000000000  0.000000000000000
%i    0    0    0    0      0      0      0      0         0
%i    0    0    0    0      0      0      0      0         0
/*      NGA, ST. LOUIS,MO.                                  
/*   EPHEMERIS COMPUTED FROM  3 DAYS OF DATA                
/* CCCCCCCCCCCCCCCCCCCCCCCCCCCCCCCCCCCCCCCCCCCCCCCCCCCCCCCCC
/* CCCCCCCCCCCCCCCCCCCCCCCCCCCCCCCCCCCCCCCCCCCCCCCCCCCCCCCCC
*  2009  6  8 17  0   .00000000                                                 
P  1  19342.019546 -15367.668797   9530.865897    -80.755075                    
V  1  -5064.042380  11469.302286  28607.137577       .061041                    
P  2  13209.282688  23066.357141  -3406.002953    155.847564                    
V  2  -1030.018886   5056.586388  30655.906633       .010055                    
P  3 -19993.107086 -10741.089904 -14386.562941    403.969239                    
V  3  17691.818295  -2641.317681 -22758.469576       .052500                    
P  4   4617.897701  24766.830150   7667.156606   -124.575782                    
V  4  -7252.028509  -7801.619019  29431.645057      -.158043                    
P  6 -15477.898476 -13416.549351 -16748.581151    153.801817                    
V  6  21798.371847   -900.608742 -19138.200181       .136385                    
P  7 -11018.428388  11414.129735 -21304.394594     17.427672                    
V  7 -11424.911488 -24471.939874  -7330.271636      -.006421                    
P  8  -2470.366108  21645.486994 -14876.542964   -206.867030                    
V  8  -8169.910406 -17190.804161 -24221.306239      -.016552                    
P  9  17190.529210   7356.782851  18241.544350     60.110915                    
V  9   9323.217535  22659.351166 -17222.236806       .019882                    
P 10   9771.995980  12181.688235 -21613.020503    -17.232431                    
V 10 -16994.033689  21126.595666   4586.474390      -.006135                    
P 11 -19766.301779  -3227.151895  17391.277295     -5.694292                    
V 11 -11242.148675 -19830.689853 -15906.414267      -.015418                    
P 12  19142.555385  -5431.902414  17599.084294   -269.395330                    
V 12 -11973.184037  18814.859659  19023.825611       .057143                    
P 13 -20282.809705   6973.820471 -15800.203372    298.986913                    
V 13 -19278.092140  -4471.276306  22961.190136       .008278                    
P 14   3402.602344 -14305.657874  22231.618400    -97.931826                    
V 14  27541.747538   4259.015518  -1597.661122       .058652                    
P 15  24454.760855   7490.335898  -7260.087991   -299.208715                    
V 15  -9457.606600   1860.505478 -29789.017339      -.032819                    
P 16  -5089.808881 -16228.839605 -20275.021897     43.796520                    
V 16  16665.602494 -19884.927410  11935.026234      -.034199                    
P 17  -4783.607506  14697.588014  21655.797078     63.348936                    
V 17 -27081.494983  -3865.398552  -3557.455164       .020827                    
P 18  16868.054048 -20194.938543  -1203.686361    -49.929280                    
V 18   1824.703318   3730.799089 -31542.408316       .032289                    
P 19 -25026.366583  -7995.027133  -4679.657454     23.161104                    
V 19   6368.898033  -1534.716808 -30764.051115      -.012381                    
P 20 -19574.822219   7592.249387  16117.105612     80.460176                    
V 20   9986.304285 -18356.707920  20652.344131      -.010078                    
P 21   9658.118863 -14507.857699 -19604.899239      9.494822                    
V 21  11521.606829  23095.373815 -11893.660580      -.020947                    
P 22   9612.144052 -23008.007751   9195.377561    198.004877                    
V 22   9617.899440  -7078.837158 -28323.638304      -.008748                    
P 23 -26297.039778    223.206624  -4751.284856    390.199852                    
V 23  -5620.484878  -2888.794970  31018.012282       .000461                    
P 24  15800.524878   -960.197849 -21163.497657    195.236464                    
V 24   9022.498655  25728.354925   5787.131988       .030255                    
P 25 -14434.594706   4372.784891 -21504.575144    452.912545                    
V 25 -13290.674980 -24780.837014   4009.680068       .182770                    
P 26  25681.512908   -495.155993   7230.698912     63.223002                    
V 26   9402.302426   2986.225538 -30343.675179       .008370                    
P 27  18112.680609  13036.077122  15073.294353     55.806744                    
V 27   6736.257424  16686.654497 -23627.509296       .032481                    
P 28 -11316.873702  22792.048041   7441.368590    -25.343885                    
V 28  -7599.464104   5416.422070 -30191.911085      -.002278                    
P 29  21682.794628  -6703.626926 -13656.116092     28.174891                    
V 29  17069.980554   4635.485072  24673.853117       .038280                    
P 30  18768.201135 -15996.317885   9382.081266    152.245908                    
V 30  -4516.083836  11997.458093  28460.405300       .028031                    
P 31  -6301.504233 -24987.228592   6323.389534    -61.940886                    
V 31   5343.880021   6151.052026  30758.702672      -.006918                    
P 32 -16818.139486  -2608.678404  20720.014473    250.054039                    
V 32  16039.948835 -19825.171142  10981.207224      -.055133                    
EOF
